start=new Date('2023-01-24T00:00:00.000Z').valueOf();
sats=[{"RA_OF_ASC_NODE":"206.8814","OBJECT_ID":"2022-077H","INCLINATION":"97.6553","MEAN_MOTION":"15.01267739","MEAN_ANOMALY":"141.1210","EPHEMERIS_TYPE":"0","SEMIMAJOR_AXIS":"6941.123","ELEMENT_SET_NO":"999","MEAN_MOTION_DOT":"0.00001564","TLE_LINE1":"1 53050U 22077H   23023.74490859  .00001564  00000-0  12633-3 0  9991","MEAN_ELEMENT_THEORY":"SGP4","ARG_OF_PERICENTER":"218.9986","EPOCH":"2023-01-23T17:52:40.102176","DECAY_DATE":null,"RCS_SIZE":"LARGE","SITE":"AFWTR","ECCENTRICITY":"0.00003950","CENTER_NAME":"EARTH","LAUNCH_DATE":"2022-07-11","PERIAPSIS":"562.714","TIME_SYSTEM":"UTC","REF_FRAME":"TEME","GP_ID":"223615739","PERIOD":"95.919","CLASSIFICATION_TYPE":"U","BSTAR":"0.00012633000000","FILE":"3758949","NORAD_CAT_ID":"53050","MEAN_MOTION_DDOT":"0.0000000000000","OBJECT_NAME":"STARLINK-4343","REV_AT_EPOCH":"3031","COUNTRY_CODE":"US","APOAPSIS":"563.262","OBJECT_TYPE":"PAYLOAD","TLE_LINE2":"2 53050  97.6553 206.8814 0000395 218.9986 141.1210 15.01267739 30317"},{"INCLINATION":"97.6564","MEAN_MOTION":"15.01260251","OBJECT_ID":"2022-077J","RA_OF_ASC_NODE":"206.8739","MEAN_ANOMALY":"269.4318","TLE_LINE1":"1 53051U 22077J   23023.73936127 -.00000188  00000-0 -10072-4 0  9993","ELEMENT_SET_NO":"999","SEMIMAJOR_AXIS":"6941.146","EPHEMERIS_TYPE":"0","MEAN_MOTION_DOT":"-0.00000188","MEAN_ELEMENT_THEORY":"SGP4","EPOCH":"2023-01-23T17:44:40.813728","ARG_OF_PERICENTER":"90.7029","SITE":"AFWTR","DECAY_DATE":null,"RCS_SIZE":"LARGE","CENTER_NAME":"EARTH","PERIAPSIS":"562.267","LAUNCH_DATE":"2022-07-11","ECCENTRICITY":"0.00010720","TIME_SYSTEM":"UTC","REF_FRAME":"TEME","PERIOD":"95.919","GP_ID":"223615746","NORAD_CAT_ID":"53051","FILE":"3758949","CLASSIFICATION_TYPE":"U","BSTAR":"-0.00001007200000","MEAN_MOTION_DDOT":"0.0000000000000","OBJECT_NAME":"STARLINK-4336","REV_AT_EPOCH":"3031","COUNTRY_CODE":"US","TLE_LINE2":"2 53051  97.6564 206.8739 0001072  90.7029 269.4318 15.01260251 30318","APOAPSIS":"563.755","OBJECT_TYPE":"PAYLOAD"},{"APOAPSIS":"563.267","OBJECT_TYPE":"PAYLOAD","TLE_LINE2":"2 53052  97.6554 206.8793 0000391 275.9085  84.2094 15.01265218 30312","REV_AT_EPOCH":"3031","COUNTRY_CODE":"US","OBJECT_NAME":"STARLINK-4341","MEAN_MOTION_DDOT":"0.0000000000000","CLASSIFICATION_TYPE":"U","BSTAR":"0.00005996700000","FILE":"3758950","NORAD_CAT_ID":"53052","GP_ID":"223616255","PERIOD":"95.919","TIME_SYSTEM":"UTC","REF_FRAME":"TEME","ECCENTRICITY":"0.00003910","CENTER_NAME":"EARTH","LAUNCH_DATE":"2022-07-11","PERIAPSIS":"562.724","DECAY_DATE":null,"SITE":"AFWTR","RCS_SIZE":"LARGE","ARG_OF_PERICENTER":"275.9085","EPOCH":"2023-01-23T17:50:00.329568","MEAN_ELEMENT_THEORY":"SGP4","ELEMENT_SET_NO":"999","SEMIMAJOR_AXIS":"6941.131","EPHEMERIS_TYPE":"0","MEAN_MOTION_DOT":"0.00000711","TLE_LINE1":"1 53052U 22077K   23023.74305937  .00000711  00000-0  59967-4 0  9990","MEAN_ANOMALY":"84.2094","OBJECT_ID":"2022-077K","RA_OF_ASC_NODE":"206.8793","INCLINATION":"97.6554","MEAN_MOTION":"15.01265218"},{"GP_ID":"223601816","PERIOD":"95.919","TIME_SYSTEM":"UTC","REF_FRAME":"TEME","MEAN_MOTION_DDOT":"0.0000000000000","CLASSIFICATION_TYPE":"U","BSTAR":"0.00005399100000","FILE":"3758315","NORAD_CAT_ID":"53053","OBJECT_NAME":"STARLINK-4337","APOAPSIS":"563.453","OBJECT_TYPE":"PAYLOAD","TLE_LINE2":"2 53053  97.6557 206.0831 0000642 242.6586 117.4573 15.01261452 30190","COUNTRY_CODE":"US","REV_AT_EPOCH":"3019","MEAN_ANOMALY":"117.4573","OBJECT_ID":"2022-077L","RA_OF_ASC_NODE":"206.0831","INCLINATION":"97.6557","MEAN_MOTION":"15.01261452","MEAN_ELEMENT_THEORY":"SGP4","SEMIMAJOR_AXIS":"6941.142","ELEMENT_SET_NO":"999","EPHEMERIS_TYPE":"0","MEAN_MOTION_DOT":"0.00000635","TLE_LINE1":"1 53053U 22077L   23022.93582569  .00000635  00000-0  53991-4 0  9995","SITE":"AFWTR","DECAY_DATE":null,"RCS_SIZE":"LARGE","ARG_OF_PERICENTER":"242.6586","EPOCH":"2023-01-22T22:27:35.339616","ECCENTRICITY":"0.00006420","CENTER_NAME":"EARTH","PERIAPSIS":"562.562","LAUNCH_DATE":"2022-07-11"},{"MEAN_MOTION_DOT":"-0.00000010","SEMIMAJOR_AXIS":"6941.156","ELEMENT_SET_NO":"999","EPHEMERIS_TYPE":"0","TLE_LINE1":"1 53054U 22077M   23022.94138634 -.00000010  00000-0  38043-5 0  9997","MEAN_ELEMENT_THEORY":"SGP4","RA_OF_ASC_NODE":"206.0871","OBJECT_ID":"2022-077M","MEAN_MOTION":"15.01256887","INCLINATION":"97.6560","MEAN_ANOMALY":"266.3329","ECCENTRICITY":"0.00011180","PERIAPSIS":"562.245","LAUNCH_DATE":"2022-07-11","CENTER_NAME":"EARTH","ARG_OF_PERICENTER":"93.8023","EPOCH":"2023-01-22T22:35:35.779776","SITE":"AFWTR","DECAY_DATE":null,"RCS_SIZE":"LARGE","BSTAR":"0.00000380430000","CLASSIFICATION_TYPE":"U","NORAD_CAT_ID":"53054","FILE":"3758315","MEAN_MOTION_DDOT":"0.0000000000000","TIME_SYSTEM":"UTC","REF_FRAME":"TEME","GP_ID":"223601829","PERIOD":"95.920","COUNTRY_CODE":"US","REV_AT_EPOCH":"3019","OBJECT_TYPE":"PAYLOAD","APOAPSIS":"563.797","TLE_LINE2":"2 53054  97.6560 206.0871 0001118  93.8023 266.3329 15.01256887 30199","OBJECT_NAME":"STARLINK-4339"},{"OBJECT_NAME":"STARLINK-4338","COUNTRY_CODE":"US","REV_AT_EPOCH":"3027","APOAPSIS":"563.261","OBJECT_TYPE":"PAYLOAD","TLE_LINE2":"2 53055  97.6558 206.6076 0000350  95.1639 264.9625 15.01258018 30275","TIME_SYSTEM":"UTC","REF_FRAME":"TEME","GP_ID":"223609385","PERIOD":"95.920","CLASSIFICATION_TYPE":"U","BSTAR":"-0.00002046600000","FILE":"3758647","NORAD_CAT_ID":"53055","MEAN_MOTION_DDOT":"0.0000000000000","ARG_OF_PERICENTER":"95.1639","EPOCH":"2023-01-23T11:12:45.740448","SITE":"AFWTR","DECAY_DATE":null,"RCS_SIZE":"LARGE","ECCENTRICITY":"0.00003500","CENTER_NAME":"EARTH","PERIAPSIS":"562.775","LAUNCH_DATE":"2022-07-11","OBJECT_ID":"2022-077N","RA_OF_ASC_NODE":"206.6076","INCLINATION":"97.6558","MEAN_MOTION":"15.01258018","MEAN_ANOMALY":"264.9625","SEMIMAJOR_AXIS":"6941.153","EPHEMERIS_TYPE":"0","ELEMENT_SET_NO":"999","MEAN_MOTION_DOT":"-0.00000322","TLE_LINE1":"1 53055U 22077N   23023.46719607 -.00000322  00000-0 -20466-4 0  9997","MEAN_ELEMENT_THEORY":"SGP4"},{"EPOCH":"2023-01-23T17:42:00.589248","ARG_OF_PERICENTER":"130.7633","DECAY_DATE":null,"RCS_SIZE":"LARGE","SITE":"AFWTR","CENTER_NAME":"EARTH","LAUNCH_DATE":"2022-07-11","PERIAPSIS":"562.710","ECCENTRICITY":"0.00004200","INCLINATION":"97.6565","MEAN_MOTION":"15.01263273","RA_OF_ASC_NODE":"206.8714","OBJECT_ID":"2022-077P","MEAN_ANOMALY":"229.3628","TLE_LINE1":"1 53056U 22077P   23023.73750682  .00001517  00000-0  12268-3 0  9991","SEMIMAJOR_AXIS":"6941.137","EPHEMERIS_TYPE":"0","ELEMENT_SET_NO":"999","MEAN_MOTION_DOT":"0.00001517","MEAN_ELEMENT_THEORY":"SGP4","OBJECT_NAME":"STARLINK-4314","REV_AT_EPOCH":"3031","COUNTRY_CODE":"US","TLE_LINE2":"2 53056  97.6565 206.8714 0000420 130.7633 229.3628 15.01263273 30315","APOAPSIS":"563.293","OBJECT_TYPE":"PAYLOAD","REF_FRAME":"TEME","TIME_SYSTEM":"UTC","PERIOD":"95.919","GP_ID":"223616261","NORAD_CAT_ID":"53056","FILE":"3758951","CLASSIFICATION_TYPE":"U","BSTAR":"0.00012268000000","MEAN_MOTION_DDOT":"0.0000000000000"},{"CENTER_NAME":"EARTH","PERIAPSIS":"562.334","LAUNCH_DATE":"2022-07-11","ECCENTRICITY":"0.00009650","EPOCH":"2023-01-23T06:19:29.589888","ARG_OF_PERICENTER":"88.5861","RCS_SIZE":"MEDIUM","DECAY_DATE":null,"SITE":"AFWTR","TLE_LINE1":"1 53057U 22077Q   23023.26353692  .00001679  00000-0  13529-3 0  9990","ELEMENT_SET_NO":"999","SEMIMAJOR_AXIS":"6941.139","EPHEMERIS_TYPE":"0","MEAN_MOTION_DOT":"0.00001679","MEAN_ELEMENT_THEORY":"SGP4","INCLINATION":"97.6564","MEAN_MOTION":"15.01262452","OBJECT_ID":"2022-077Q","RA_OF_ASC_NODE":"206.4062","MEAN_ANOMALY":"271.5474","REV_AT_EPOCH":"3024","COUNTRY_CODE":"US","TLE_LINE2":"2 53057  97.6564 206.4062 0000965  88.5861 271.5474 15.01262452 30242","APOAPSIS":"563.674","OBJECT_TYPE":"PAYLOAD","OBJECT_NAME":"STARLINK-4252","NORAD_CAT_ID":"53057","FILE":"3758647","CLASSIFICATION_TYPE":"U","BSTAR":"0.00013529000000","MEAN_MOTION_DDOT":"0.0000000000000","REF_FRAME":"TEME","TIME_SYSTEM":"UTC","PERIOD":"95.919","GP_ID":"223609579"},{"MEAN_MOTION":"15.01259175","INCLINATION":"97.6571","RA_OF_ASC_NODE":"206.1462","OBJECT_ID":"2022-077R","MEAN_ANOMALY":"280.6882","TLE_LINE1":"1 53058U 22077R   23023.00087625  .00000836  00000-0  69662-4 0  9997","MEAN_MOTION_DOT":"0.00000836","SEMIMAJOR_AXIS":"6941.149","EPHEMERIS_TYPE":"0","ELEMENT_SET_NO":"999","MEAN_ELEMENT_THEORY":"SGP4","EPOCH":"2023-01-23T00:01:15.708000","ARG_OF_PERICENTER":"79.4461","DECAY_DATE":null,"RCS_SIZE":"LARGE","SITE":"AFWTR","PERIAPSIS":"562.280","LAUNCH_DATE":"2022-07-11","CENTER_NAME":"EARTH","ECCENTRICITY":"0.00010580","TIME_SYSTEM":"UTC","REF_FRAME":"TEME","PERIOD":"95.919","GP_ID":"223602823","NORAD_CAT_ID":"53058","FILE":"3758356","BSTAR":"0.00006966200000","CLASSIFICATION_TYPE":"U","MEAN_MOTION_DDOT":"0.0000000000000","OBJECT_NAME":"STARLINK-4317","REV_AT_EPOCH":"2962","COUNTRY_CODE":"US","TLE_LINE2":"2 53058  97.6571 206.1462 0001058  79.4461 280.6882 15.01259175 29623","OBJECT_TYPE":"PAYLOAD","APOAPSIS":"563.749"},{"MEAN_MOTION_DDOT":"0.0000000000000","NORAD_CAT_ID":"53059","FILE":"3758665","CLASSIFICATION_TYPE":"U","BSTAR":"0.00016559000000","PERIOD":"95.919","GP_ID":"223609775","TIME_SYSTEM":"UTC","REF_FRAME":"TEME","TLE_LINE2":"2 53059  97.6592 206.6039 0000890  84.4091 275.7234 15.01263464 30275","APOAPSIS":"563.619","OBJECT_TYPE":"PAYLOAD","REV_AT_EPOCH":"3027","COUNTRY_CODE":"US","OBJECT_NAME":"STARLINK-4320","MEAN_ELEMENT_THEORY":"SGP4","TLE_LINE1":"1 53059U 22077S   23023.46003603  .00002069  00000-0  16559-3 0  9998","SEMIMAJOR_AXIS":"6941.136","ELEMENT_SET_NO":"999","EPHEMERIS_TYPE":"0","MEAN_MOTION_DOT":"0.00002069","MEAN_ANOMALY":"275.7234","INCLINATION":"97.6592","MEAN_MOTION":"15.01263464","OBJECT_ID":"2022-077S","RA_OF_ASC_NODE":"206.6039","CENTER_NAME":"EARTH","PERIAPSIS":"562.383","LAUNCH_DATE":"2022-07-11","ECCENTRICITY":"0.00008900","DECAY_DATE":null,"RCS_SIZE":"LARGE","SITE":"AFWTR","EPOCH":"2023-01-23T11:02:27.112992","ARG_OF_PERICENTER":"84.4091"}];
